{"type": "FeatureCollection", "features": [ {"type": "Feature", "properties": {"norad_id": 32384, "name": "GPS BIIRM-5 (PRN 29)", "group": "gps-ops", "lat": -46.73419172211271, "lon": -125.96288909154805, "alt_km": 20246.853970905202, "timestamp": "2025-12-12T11:38:31.670706+00:00", "meta": {"OBJECT_NAME": "GPS BIIRM-5 (PRN 29)", "OBJECT_ID": "2007-062A", "EPOCH": "2025-12-11T19:20:30.701760", "MEAN_MOTION": 2.00577226, "ECCENTRICITY": 0.00322349, "INCLINATION": 55.183, "RA_OF_ASC_NODE": 281.6834, "ARG_OF_PERICENTER": 162.4856, "MEAN_ANOMALY": 4.3365, "EPHEMERIS_TYPE": 0, "CLASSIFICATION_TYPE": "U", "NORAD_CAT_ID": 32384, "ELEMENT_SET_NO": 999, "REV_AT_EPOCH": 13175, "BSTAR": 0, "MEAN_MOTION_DOT": -7.4e-07, "MEAN_MOTION_DDOT": 0}, "tle": {"line1": "1 32384U 07062A   25345.80591090 -.00000074  00000+0  00000+0 0  9996", "line2": "2 32384  55.1830 281.6834 0032234 162.4856   4.3365  2.00577226131751"}}, "geometry": {"type": "Point", "coordinates": [-125.96288909154805, -46.73419172211271]}}, {"type": "Feature", "properties": {"norad_id": 32711, "name": "GPS BIIRM-6 (PRN 07)", "group": "gps-ops", "lat": -32.06171421264682, "lon": 3.9643091074234116, "alt_km": 19694.16051767319, "timestamp": "2025-12-12T11:38:31.670718+00:00", "meta": {"OBJECT_NAME": "GPS BIIRM-6 (PRN 07)", "OBJECT_ID": "2008-012A", "EPOCH": "2025-12-11T16:14:23.545824", "MEAN_MOTION": 2.00565584, "ECCENTRICITY": 0.0202401, "INCLINATION": 54.477, "RA_OF_ASC_NODE": 157.4153, "ARG_OF_PERICENTER": 244.9354, "MEAN_ANOMALY": 112.9612, "EPHEMERIS_TYPE": 0, "CLASSIFICATION_TYPE": "U", "NORAD_CAT_ID": 32711, "ELEMENT_SET_NO": 999, "REV_AT_EPOCH": 12999, "BSTAR": 0, "MEAN_MOTION_DOT": 8.9e-07, "MEAN_MOTION_DDOT": 0}, "tle": {"line1": "1 32711U 08012A   25345.67666141  .00000089  00000+0  00000+0 0  9996", "line2": "2 32711  54.4770 157.4153 0202401 244.9354 112.9612  2.00565584129996"}}, "geometry": {"type": "Point", "coordinates": [3.9643091074234116, -32.06171421264682]}}, {"type": "Feature", "properties": {"norad_id": 35752, "name": "GPS BIIRM-8 (PRN 05)", "group": "gps-ops", "lat": -47.01647208623949, "lon": -99.04000304771328, "alt_km": 20316.706551724907, "timestamp": "2025-12-12T11:38:31.670729+00:00", "meta": {"OBJECT_NAME": "GPS BIIRM-8 (PRN 05)", "OBJECT_ID": "2009-043A", "EPOCH": "2025-12-11T15:37:32.913696", "MEAN_MOTION": 2.00565741, "ECCENTRICITY": 0.00518358, "INCLINATION": 56.0903, "RA_OF_ASC_NODE": 34.8259, "ARG_OF_PERICENTER": 81.9315, "MEAN_ANOMALY": 277.4877, "EPHEMERIS_TYPE": 0, "CLASSIFICATION_TYPE": "U", "NORAD_CAT_ID": 35752, "ELEMENT_SET_NO": 999, "REV_AT_EPOCH": 11959, "BSTAR": 0, "MEAN_MOTION_DOT": -9.6e-07, "MEAN_MOTION_DDOT": 0}, "tle": {"line1": "1 35752U 09043A   25345.65107539 -.00000096  00000+0  00000+0 0  9997", "line2": "2 35752  56.0903  34.8259 0051835  81.9315 277.4877  2.00565741119594"}}, "geometry": {"type": "Point", "coordinates": [-99.04000304771328, -47.01647208623949]}}, {"type": "Feature", "properties": {"norad_id": 36585, "name": "GPS BIIF-1  (PRN 25)", "group": "gps-ops", "lat": -1.1161594695725359, "lon": -144.70954350242752, "alt_km": 20045.860192873315, "timestamp": "2025-12-12T11:38:31.670741+00:00", "meta": {"OBJECT_NAME": "GPS BIIF-1  (PRN 25)", "OBJECT_ID": "2010-022A", "EPOCH": "2025-12-11T07:42:38.318112", "MEAN_MOTION": 2.00553138, "ECCENTRICITY": 0.0126045, "INCLINATION": 54.3003, "RA_OF_ASC_NODE": 216.1311, "ARG_OF_PERICENTER": 65.0548, "MEAN_ANOMALY": 174.6737, "EPHEMERIS_TYPE": 0, "CLASSIFICATION_TYPE": "U", "NORAD_CAT_ID": 36585, "ELEMENT_SET_NO": 999, "REV_AT_EPOCH": 11382, "BSTAR": 0, "MEAN_MOTION_DOT": 1.4e-07, "MEAN_MOTION_DDOT": 0}, "tle": {"line1": "1 36585U 10022A   25345.32127683  .00000014  00000+0  00000+0 0  9996", "line2": "2 36585  54.3003 216.1311 0126045  65.0548 174.6737  2.00553138113822"}}, "geometry": {"type": "Point", "coordinates": [-144.70954350242752, -1.1161594695725359]}}, {"type": "Feature", "properties": {"norad_id": 38833, "name": "GPS BIIF-3  (PRN 24)", "group": "gps-ops", "lat": 52.666615639206555, "lon": -104.441498064453, "alt_km": 19788.891994976897, "timestamp": "2025-12-12T11:38:31.670753+00:00", "meta": {"OBJECT_NAME": "GPS BIIF-3  (PRN 24)", "OBJECT_ID": "2012-053A", "EPOCH": "2025-12-09T20:38:00.572640", "MEAN_MOTION": 2.00564945, "ECCENTRICITY": 0.0175755, "INCLINATION": 53.5569, "RA_OF_ASC_NODE": 151.3565, "ARG_OF_PERICENTER": 63.953, "MEAN_ANOMALY": 297.8432, "EPHEMERIS_TYPE": 0, "CLASSIFICATION_TYPE": "U", "NORAD_CAT_ID": 38833, "ELEMENT_SET_NO": 999, "REV_AT_EPOCH": 9564, "BSTAR": 0, "MEAN_MOTION_DOT": 6.8e-07, "MEAN_MOTION_DDOT": 0}, "tle": {"line1": "1 38833U 12053A   25343.85972885  .00000068  00000+0  00000+0 0  9997", "line2": "2 38833  53.5569 151.3565 0175755  63.9530 297.8432  2.00564945 95646"}}, "geometry": {"type": "Point", "coordinates": [-104.441498064453, 52.666615639206555]}}, {"type": "Feature", "properties": {"norad_id": 39166, "name": "GPS BIIF-4  (PRN 27)", "group": "gps-ops", "lat": -12.964008519212184, "lon": 105.95728025611807, "alt_km": 20490.27460091963, "timestamp": "2025-12-12T11:38:31.670764+00:00", "meta": {"OBJECT_NAME": "GPS BIIF-4  (PRN 27)", "OBJECT_ID": "2013-023A", "EPOCH": "2025-12-11T05:15:59.310144", "MEAN_MOTION": 2.0056514, "ECCENTRICITY": 0.01377988, "INCLINATION": 54.6533, "RA_OF_ASC_NODE": 276.63, "ARG_OF_PERICENTER": 48.5969, "MEAN_ANOMALY": 312.5932, "EPHEMERIS_TYPE": 0, "CLASSIFICATION_TYPE": "U", "NORAD_CAT_ID": 39166, "ELEMENT_SET_NO": 999, "REV_AT_EPOCH": 9211, "BSTAR": 0, "MEAN_MOTION_DOT": -6.7e-07, "MEAN_MOTION_DDOT": 0}, "tle": {"line1": "1 39166U 13023A   25345.21943646 -.00000067  00000+0  00000+0 0  9990", "line2": "2 39166  54.6533 276.6300 0137798  48.5969 312.5932  2.00565140 92114"}}, "geometry": {"type": "Point", "coordinates": [105.95728025611807, -12.964008519212184]}}, {"type": "Feature", "properties": {"norad_id": 39533, "name": "GPS BIIF-5  (PRN 30)", "group": "gps-ops", "lat": -13.727546121113683, "lon": -12.698544051103362, "alt_km": 19999.676376704836, "timestamp": "2025-12-12T11:38:31.670776+00:00", "meta": {"OBJECT_NAME": "GPS BIIF-5  (PRN 30)", "OBJECT_ID": "2014-008A", "EPOCH": "2025-12-11T17:05:22.085952", "MEAN_MOTION": 2.00574377, "ECCENTRICITY": 0.0079189, "INCLINATION": 53.6311, "RA_OF_ASC_NODE": 156.9665, "ARG_OF_PERICENTER": 226.4865, "MEAN_ANOMALY": 132.8633, "EPHEMERIS_TYPE": 0, "CLASSIFICATION_TYPE": "U", "NORAD_CAT_ID": 39533, "ELEMENT_SET_NO": 999, "REV_AT_EPOCH": 8592, "BSTAR": 0, "MEAN_MOTION_DOT": 8.7e-07, "MEAN_MOTION_DDOT": 0}, "tle": {"line1": "1 39533U 14008A   25345.71206118  .00000087  00000+0  00000+0 0  9994", "line2": "2 39533  53.6311 156.9665 0079189 226.4865 132.8633  2.00574377 85924"}}, "geometry": {"type": "Point", "coordinates": [-12.698544051103362, -13.727546121113683]}}, {"type": "Feature", "properties": {"norad_id": 39741, "name": "GPS BIIF-6  (PRN 06)", "group": "gps-ops", "lat": -5.31666460675389, "lon": -24.74062813242269, "alt_km": 20098.233961826976, "timestamp": "2025-12-12T11:38:31.670787+00:00", "meta": {"OBJECT_NAME": "GPS BIIF-6  (PRN 06)", "OBJECT_ID": "2014-026A", "EPOCH": "2025-12-11T11:55:13.475136", "MEAN_MOTION": 2.00561432, "ECCENTRICITY": 0.0039154, "INCLINATION": 56.584, "RA_OF_ASC_NODE": 338.8247, "ARG_OF_PERICENTER": 318.6056, "MEAN_ANOMALY": 41.1101, "EPHEMERIS_TYPE": 0, "CLASSIFICATION_TYPE": "U", "NORAD_CAT_ID": 39741, "ELEMENT_SET_NO": 999, "REV_AT_EPOCH": 8477, "BSTAR": 0, "MEAN_MOTION_DOT": -8.5e-07, "MEAN_MOTION_DDOT": 0}, "tle": {"line1": "1 39741U 14026A   25345.49668374 -.00000085  00000+0  00000+0 0  9995", "line2": "2 39741  56.5840 338.8247 0039154 318.6056  41.1101  2.00561432 84777"}}, "geometry": {"type": "Point", "coordinates": [-24.74062813242269, -5.31666460675389]}}, {"type": "Feature", "properties": {"norad_id": 40105, "name": "GPS BIIF-7  (PRN 09)", "group": "gps-ops", "lat": -50.15365843682125, "lon": 39.6416510746634, "alt_km": 20272.758374812784, "timestamp": "2025-12-12T11:38:31.670799+00:00", "meta": {"OBJECT_NAME": "GPS BIIF-7  (PRN 09)", "OBJECT_ID": "2014-045A", "EPOCH": "2025-12-11T14:01:23.585664", "MEAN_MOTION": 2.00572456, "ECCENTRICITY": 0.00327154, "INCLINATION": 55.2284, "RA_OF_ASC_NODE": 95.945, "ARG_OF_PERICENTER": 119.8377, "MEAN_ANOMALY": 240.477, "EPHEMERIS_TYPE": 0, "CLASSIFICATION_TYPE": "U", "NORAD_CAT_ID": 40105, "ELEMENT_SET_NO": 999, "REV_AT_EPOCH": 8231, "BSTAR": 0, "MEAN_MOTION_DOT": -5e-08, "MEAN_MOTION_DDOT": 0}, "tle": {"line1": "1 40105U 14045A   25345.58430076 -.00000005  00000+0  00000+0 0  9990", "line2": "2 40105  55.2284  95.9450 0032715 119.8377 240.4770  2.00572456 82313"}}, "geometry": {"type": "Point", "coordinates": [39.6416510746634, -50.15365843682125]}}, {"type": "Feature", "properties": {"norad_id": 40294, "name": "GPS BIIF-8  (PRN 03)", "group": "gps-ops", "lat": 15.63064522088012, "lon": 48.694725048597086, "alt_km": 20076.69264802601, "timestamp": "2025-12-12T11:38:31.670810+00:00", "meta": {"OBJECT_NAME": "GPS BIIF-8  (PRN 03)", "OBJECT_ID": "2014-068A", "EPOCH": "2025-12-11T11:05:24.874080", "MEAN_MOTION": 2.00564727, "ECCENTRICITY": 0.0060777, "INCLINATION": 56.8569, "RA_OF_ASC_NODE": 38.1954, "ARG_OF_PERICENTER": 69.205, "MEAN_ANOMALY": 291.4963, "EPHEMERIS_TYPE": 0, "CLASSIFICATION_TYPE": "U", "NORAD_CAT_ID": 40294, "ELEMENT_SET_NO": 999, "REV_AT_EPOCH": 8144, "BSTAR": 0, "MEAN_MOTION_DOT": -9.3e-07, "MEAN_MOTION_DDOT": 0}, "tle": {"line1": "1 40294U 14068A   25345.46209345 -.00000093  00000+0  00000+0 0  9991", "line2": "2 40294  56.8569  38.1954 0060777  69.2050 291.4963  2.00564727 81443"}}, "geometry": {"type": "Point", "coordinates": [48.694725048597086, 15.63064522088012]}}]}